OSCAR 7 (AO-7)          
1 07530U 74089B   26162.57255253 -.00000028  00000+0  11348-3 0  9994
2 07530 101.9901 175.7606 0012512 140.5736 350.4172 12.53697991359817
PHASE 3B (AO-10)        
1 14129U 83058B   26158.17238870 -.00000194  00000+0  00000+0 0  9992
2 14129  25.9048 221.2242 6014266 112.9115 319.2048  2.05872980295281
UOSAT 2 (UO-11)         
1 14781U 84021B   26162.44901040  .00001163  00000+0  12403-3 0  9998
2 14781  97.8055 128.0879 0007099 191.8106 168.2947 14.90768900256276
LUSAT (LO-19)           
1 20442U 90005G   26162.53069413  .00000105  00000+0  54261-4 0  9991
2 20442  98.8852 184.1803 0010820 218.5501 141.4911 14.34121495901580
EYESAT A (AO-27)        
1 22825U 93061C   26162.47588678  .00000067  00000+0  42624-4 0  9992
2 22825  98.6881 229.8913 0009454 114.5060 245.7110 14.30940682706183
ITAMSAT (IO-26)         
1 22826U 93061D   26162.45700271  .00000069  00000+0  42795-4 0  9997
2 22826  98.6828 229.7893 0010069  99.8969 260.3351 14.31367413706498
RADIO ROSTO (RS15)      
1 23439U 94085A   26162.61725759 -.00000047  00000+0 -12786-3 0  9995
2 23439  64.8187 312.2244 0155772   4.9062 355.3347 11.27583612295274
JAS-2 (FO-29)           
1 24278U 96046B   26162.54420304  .00000014  00000+0  46335-4 0  9996
2 24278  98.5245  12.1894 0350826 111.0367 252.8667 13.53273928472402
TECHSAT 1B (GO-32)      
1 25397U 98043D   26162.58543430  .00000048  00000+0  41012-4 0  9992
2 25397  99.0065 155.2028 0000733 176.4907 183.6276 14.24427354450533
ISS (ZARYA)             
1 25544U 98067A   26162.51298015  .00008593  00000+0  16294-3 0  9997
2 25544  51.6332 328.1749 0005119 173.4651 186.6405 15.49175527570872
PCSAT (NO-44)           
1 26931U 01043C   26162.57168052  .00000071  00000+0  57447-4 0  9998
2 26931  67.0509 258.7958 0006101 264.4159  95.6247 14.31954128289643
SAUDISAT 1C (SO-50)     
1 27607U 02058C   26162.55839360  .00000916  00000+0  12536-3 0  9998
2 27607  64.5506 146.4007 0075403 263.5157  95.7360 14.83034770263626
CUTE-1 (CO-55)          
1 27844U 03031E   26162.55782411  .00000255  00000+0  12921-3 0  9991
2 27844  98.6735 171.1873 0009139 194.6488 165.4428 14.24332340190876
CUBESAT XI-IV (CO-57)   
1 27848U 03031J   26162.54345884  .00000221  00000+0  11637-3 0  9999
2 27848  98.6768 170.8906 0008680 214.5229 145.5387 14.23617902190573
MOZHAETS 4 (RS22)       
1 27939U 03042A   26162.64905005  .00001068  00000+0  17278-3 0  9997
2 27939  98.3474 346.8520 0010038 289.4379 160.3055 14.73458673214734
CUBESAT XI-V            
1 28895U 05043F   26162.35534873  .00001156  00000+0  18968-3 0  9996
2 28895  98.2977 317.8549 0013290 220.0353 139.9875 14.72615440100897
CUTE-1.7+APD II (CO-65) 
1 32785U 08021C   26162.61398193  .00004987  00000+0  31586-3 0  9996
2 32785  97.8272 143.9165 0010295  55.6986 304.5215 15.09401750984358
SEEDS II (CO-66)        
1 32791U 08021J   26162.25964504  .00015274  00000+0  48820-3 0  9998
2 32791  97.7517 159.8749 0001967  23.1856 336.9473 15.32546772986382
YUBILEINY (RS30)        
1 32953U 08025A   26162.62595572  .00000010  00000+0 -20386-5 0  9990
2 32953  82.5049 358.9006 0019083 326.4437  33.5433 12.43178834819003
KKS-1 (KISEKI)          
1 33499U 09002H   26162.58941596  .00001162  00000+0  14947-3 0  9990
2 33499  98.1193  84.9429 0006837 317.1888  42.8792 14.83109845935368
SWISSCUBE               
1 35932U 09051B   26162.21632553  .00000804  00000+0  16844-3 0  9998
2 35932  98.4041  70.0006 0005629 224.4191 135.6559 14.62470076888283
BEESAT-1                
1 35933U 09051C   26162.22265768  .00000660  00000+0  14239-3 0  9996
2 35933  98.3971  69.6549 0003964 240.4948 119.5857 14.61710634888311
ITUPSAT1                
1 35935U 09051E   26162.20832687  .00000614  00000+0  13683-3 0  9997
2 35935  98.4055  68.8386 0006131 256.4621 103.5895 14.60431670887864
XIWANG-1 (HOPE-1)       
1 36122U 09072B   26162.61994775  .00000062  00000+0  27801-3 0  9995
2 36122 100.4019 116.5407 0006818 245.3430 114.6973 13.16438940792276
O/OREOS (USA 219)       
1 37224U 10062C   26162.50369234  .00002078  00000+0  20189-3 0  9995
2 37224  71.9708  93.2127 0012427  75.4673 284.7875 14.93720190115794
JUGNU                   
1 37839U 11058B   26161.86742604  .00000399  00000+0  68784-4 0  9995
2 37839  19.9621 346.8221 0018563   6.6957  22.8320 14.13775053758139
SRMSAT                  
1 37841U 11058D   26162.51581193  .00000355  00000+0  48954-4 0  9994
2 37841  19.9715  93.7945 0011909 141.4141  27.1536 14.11574372757019
STRAND-1                
1 39090U 13009E   26162.48626012  .00000258  00000+0  10129-3 0  9990
2 39090  98.3921 342.8611 0007503 244.6927 115.3483 14.37160014696248
ZACUBE-1 (TSHEPISOSAT)  
1 39417U 13066B   26162.47489694  .00002775  00000+0  21784-3 0  9993
2 39417  97.8085 124.7807 0040210 267.7109  91.9510 15.01152948679879
GOMX-1                  
1 39430U 13066Q   26162.60226681  .00001957  00000+0  29765-3 0  9996
2 39430  97.6494   3.4179 0130176  95.2729 266.3347 14.69439770669097
